QIANFAN-9               
1 60387U 24140J   25334.98226348  .00000093  00000+0  12558-3 0  9999
2 60387  88.9751 300.5537 0014537 228.3334 131.6574 13.50978990 65742
QIANFAN-10              
1 60388U 24140K   25334.98645485  .00000079  00000+0  10424-3 0  9991
2 60388  88.9761 299.8992 0013523 202.8157 157.2394 13.50979569 65874
QIANFAN-11              
1 60389U 24140L   25334.94944558  .00000082  00000+0  10859-3 0  9997
2 60389  88.9687 300.4991 0012580 227.5489 132.4600 13.50975782 65524
QIANFAN-12              
1 60390U 24140M   25334.89588357  .00000089  00000+0  11891-3 0  9998
2 60390  88.9730 300.5429 0011265 236.8088 123.1984 13.50976475 65644
QIANFAN-13              
1 60391U 24140N   25334.94114994  .00000102  00000+0  13978-3 0  9991
2 60391  88.9742 300.6367 0011067 239.7052 120.3004 13.50977017 65671
QIANFAN-14              
1 60392U 24140P   25334.96573790  .00000085  00000+0  11326-3 0  9992
2 60392  88.9721 300.5342 0014749 240.2317 119.7368 13.50976616 65682
QIANFAN-15              
1 60393U 24140Q   25334.89995254  .00000093  00000+0  12617-3 0  9991
2 60393  88.9744 300.4947 0010756 223.5905 136.4397 13.50975339 65666
QIANFAN-16              
1 60394U 24140R   25334.96181746  .00000074  00000+0  95712-4 0  9990
2 60394  88.9748 300.6082 0012650 244.4042 115.5802 13.50975464 65581
